{
  "type": "FeatureCollection",
  "features": [
    {
      "type": "Feature",
      "properties": {
        "norad_id": 66732,
        "name": "FLOCK 4H-29",
        "group": "last-30-days",
        "lat": 82.29072736389767,
        "lon": -3.321374099188936,
        "alt_km": 507.7920134418564,
        "timestamp": "2025-12-25T22:42:15.708428+00:00",
        "meta_object_name": "FLOCK 4H-29",
        "meta_object_id": "2025-276BU",
        "meta_epoch": "2025-12-25T16:00:01.998720",
        "meta_mean_motion": 15.17296277,
        "meta_eccentricity": 0.0001938,
        "meta_inclination": 97.4368,
        "meta_ra_of_asc_node": 71.1834,
        "meta_arg_of_pericenter": 259.3991,
        "meta_mean_anomaly": 103.798,
        "meta_ephemeris_type": 0,
        "meta_classification_type": "U",
        "meta_norad_cat_id": 66732,
        "meta_element_set_no": 999,
        "meta_rev_at_epoch": 350,
        "meta_bstar": 0.0025858,
        "meta_mean_motion_dot": 0.00051787,
        "meta_mean_motion_ddot": 0,
        "tle_line1": "1 66732U 25276BU  25359.66668980  .00051787  00000+0  25858-2 0  9996",
        "tle_line2": "2 66732  97.4368  71.1834 0001938 259.3991 103.7980 15.17296277  3509"
      },
      "geometry": {
        "type": "Point",
        "coordinates": [
          -3.321374099188936,
          82.29072736389767
        ]
      }
    },
    {
      "type": "Feature",
      "properties": {
        "norad_id": 66733,
        "name": "FLOCK 4H-30",
        "group": "last-30-days",
        "lat": 78.67460469322396,
        "lon": 30.731173980507712,
        "alt_km": 508.8257397535135,
        "timestamp": "2025-12-25T22:42:15.708438+00:00",
        "meta_object_name": "FLOCK 4H-30",
        "meta_object_id": "2025-276BV",
        "meta_epoch": "2025-12-25T18:00:02.000160",
        "meta_mean_motion": 15.17307309,
        "meta_eccentricity": 0.0003225,
        "meta_inclination": 97.4431,
        "meta_ra_of_asc_node": 71.2879,
        "meta_arg_of_pericenter": 246.5064,
        "meta_mean_anomaly": 205.08,
        "meta_ephemeris_type": 0,
        "meta_classification_type": "U",
        "meta_norad_cat_id": 66733,
        "meta_element_set_no": 999,
        "meta_rev_at_epoch": 352,
        "meta_bstar": -0.00086562,
        "meta_mean_motion_dot": -0.00017268,
        "meta_mean_motion_ddot": 0,
        "tle_line1": "1 66733U 25276BV  25359.75002315 -.00017268  00000+0 -86562-3 0  9999",
        "tle_line2": "2 66733  97.4431  71.2879 0003225 246.5064 205.0800 15.17307309  3529"
      },
      "geometry": {
        "type": "Point",
        "coordinates": [
          30.731173980507712,
          78.67460469322396
        ]
      }
    },
    {
      "type": "Feature",
      "properties": {
        "norad_id": 66734,
        "name": "FLOCK 4H-31",
        "group": "last-30-days",
        "lat": 78.82851179281488,
        "lon": 30.050199794029783,
        "alt_km": 508.5796306426537,
        "timestamp": "2025-12-25T22:42:15.708448+00:00",
        "meta_object_name": "FLOCK 4H-31",
        "meta_object_id": "2025-276BW",
        "meta_epoch": "2025-12-25T16:00:51.904224",
        "meta_mean_motion": 15.17235768,
        "meta_eccentricity": 0.0002485,
        "meta_inclination": 97.4365,
        "meta_ra_of_asc_node": 71.1823,
        "meta_arg_of_pericenter": 262.1041,
        "meta_mean_anomaly": 97.991,
        "meta_ephemeris_type": 0,
        "meta_classification_type": "U",
        "meta_norad_cat_id": 66734,
        "meta_element_set_no": 999,
        "meta_rev_at_epoch": 408,
        "meta_bstar": 0.00025889,
        "meta_mean_motion_dot": 5.084e-05,
        "meta_mean_motion_ddot": 0,
        "tle_line1": "1 66734U 25276BW  25359.66726741  .00005084  00000+0  25889-3 0  9992",
        "tle_line2": "2 66734  97.4365  71.1823 0002485 262.1041  97.9910 15.17235768  4081"
      },
      "geometry": {
        "type": "Point",
        "coordinates": [
          30.050199794029783,
          78.82851179281488
        ]
      }
    },
    {
      "type": "Feature",
      "properties": {
        "norad_id": 66735,
        "name": "FLOCK 4H-32",
        "group": "last-30-days",
        "lat": 77.20376965130633,
        "lon": 36.33956348573163,
        "alt_km": 509.2265869999437,
        "timestamp": "2025-12-25T22:42:15.708457+00:00",
        "meta_object_name": "FLOCK 4H-32",
        "meta_object_id": "2025-276BX",
        "meta_epoch": "2025-12-25T16:01:24.883968",
        "meta_mean_motion": 15.1726209,
        "meta_eccentricity": 0.0003553,
        "meta_inclination": 97.4423,
        "meta_ra_of_asc_node": 71.2034,
        "meta_arg_of_pericenter": 245.2939,
        "meta_mean_anomaly": 114.7925,
        "meta_ephemeris_type": 0,
        "meta_classification_type": "U",
        "meta_norad_cat_id": 66735,
        "meta_element_set_no": 999,
        "meta_rev_at_epoch": 408,
        "meta_bstar": 0.00038403,
        "meta_mean_motion_dot": 7.582e-05,
        "meta_mean_motion_ddot": 0,
        "tle_line1": "1 66735U 25276BX  25359.66764912  .00007582  00000+0  38403-3 0  9996",
        "tle_line2": "2 66735  97.4423  71.2034 0003553 245.2939 114.7925 15.17262090  4089"
      },
      "geometry": {
        "type": "Point",
        "coordinates": [
          36.33956348573163,
          77.20376965130633
        ]
      }
    },
    {
      "type": "Feature",
      "properties": {
        "norad_id": 66736,
        "name": "FLOCK 4H-33",
        "group": "last-30-days",
        "lat": -2.3062737270112947,
        "lon": -108.78202189605993,
        "alt_km": 512.5966731424687,
        "timestamp": "2025-12-25T22:42:15.708471+00:00",
        "meta_object_name": "FLOCK 4H-33",
        "meta_object_id": "2025-276BY",
        "meta_epoch": "2025-12-25T17:09:34.106112",
        "meta_mean_motion": 15.18334704,
        "meta_eccentricity": 0.000279,
        "meta_inclination": 97.442,
        "meta_ra_of_asc_node": 71.2923,
        "meta_arg_of_pericenter": 151.7464,
        "meta_mean_anomaly": 208.3922,
        "meta_ephemeris_type": 0,
        "meta_classification_type": "U",
        "meta_norad_cat_id": 66736,
        "meta_element_set_no": 999,
        "meta_rev_at_epoch": 409,
        "meta_bstar": 0.00053563,
        "meta_mean_motion_dot": 0.00010937,
        "meta_mean_motion_ddot": 0,
        "tle_line1": "1 66736U 25276BY  25359.71497808  .00010937  00000+0  53563-3 0  9992",
        "tle_line2": "2 66736  97.4420  71.2923 0002790 151.7464 208.3922 15.18334704  4091"
      },
      "geometry": {
        "type": "Point",
        "coordinates": [
          -108.78202189605993,
          -2.3062737270112947
        ]
      }
    },
    {
      "type": "Feature",
      "properties": {
        "norad_id": 66737,
        "name": "FLOCK 4H-34",
        "group": "last-30-days",
        "lat": 8.385999106690539,
        "lon": -107.37528353141623,
        "alt_km": 511.67052092622725,
        "timestamp": "2025-12-25T22:42:15.708481+00:00",
        "meta_object_name": "FLOCK 4H-34",
        "meta_object_id": "2025-276BZ",
        "meta_epoch": "2025-12-25T17:12:22.523040",
        "meta_mean_motion": 15.1818778,
        "meta_eccentricity": 0.0002384,
        "meta_inclination": 97.4434,
        "meta_ra_of_asc_node": 71.295,
        "meta_arg_of_pericenter": 153.9069,
        "meta_mean_anomaly": 206.2286,
        "meta_ephemeris_type": 0,
        "meta_classification_type": "U",
        "meta_norad_cat_id": 66737,
        "meta_element_set_no": 999,
        "meta_rev_at_epoch": 334,
        "meta_bstar": 0.00052356,
        "meta_mean_motion_dot": 0.00010643,
        "meta_mean_motion_ddot": 0,
        "tle_line1": "1 66737U 25276BZ  25359.71692735  .00010643  00000+0  52356-3 0  9992",
        "tle_line2": "2 66737  97.4434  71.2950 0002384 153.9069 206.2286 15.18187780  3348"
      },
      "geometry": {
        "type": "Point",
        "coordinates": [
          -107.37528353141623,
          8.385999106690539
        ]
      }
    },
    {
      "type": "Feature",
      "properties": {
        "norad_id": 66738,
        "name": "FLOCK 4H-35",
        "group": "last-30-days",
        "lat": -1.522377235950339,
        "lon": -108.68889955458644,
        "alt_km": 512.9100720870501,
        "timestamp": "2025-12-25T22:42:15.708496+00:00",
        "meta_object_name": "FLOCK 4H-35",
        "meta_object_id": "2025-276CA",
        "meta_epoch": "2025-12-25T17:09:46.019808",
        "meta_mean_motion": 15.18283762,
        "meta_eccentricity": 0.0002605,
        "meta_inclination": 97.4398,
        "meta_ra_of_asc_node": 71.283,
        "meta_arg_of_pericenter": 142.7622,
        "meta_mean_anomaly": 217.3793,
        "meta_ephemeris_type": 0,
        "meta_classification_type": "U",
        "meta_norad_cat_id": 66738,
        "meta_element_set_no": 999,
        "meta_rev_at_epoch": 338,
        "meta_bstar": 0.00049039,
        "meta_mean_motion_dot": 9.992e-05,
        "meta_mean_motion_ddot": 0,
        "tle_line1": "1 66738U 25276CA  25359.71511597  .00009992  00000+0  49039-3 0  9998",
        "tle_line2": "2 66738  97.4398  71.2830 0002605 142.7622 217.3793 15.18283762  3389"
      },
      "geometry": {
        "type": "Point",
        "coordinates": [
          -108.68889955458644,
          -1.522377235950339
        ]
      }
    }
  ]
}